CCSDS_OMM_VERS = 2.0
CREATION_DATE  = 
ORIGINATOR     = 

OBJECT_NAME    = ATLAS CENTAUR 2
OBJECT_ID      = 1963-047A
CENTER_NAME    = EARTH
REF_FRAME      = TEME
TIME_SYSTEM    = UTC
MEAN_ELEMENT_THEORY = SGP/SGP4

EPOCH          = 2025-12-29T23:26:10.019040
MEAN_MOTION    = 14.11836125
ECCENTRICITY   = .05486231
INCLINATION    = 30.3533
RA_OF_ASC_NODE = 225.1714
ARG_OF_PERICENTER = 186.0270
MEAN_ANOMALY   = 173.3506

EPHEMERIS_TYPE = 0
CLASSIFICATION_TYPE = U
NORAD_CAT_ID   = 694
ELEMENT_SET_NO = 999
REV_AT_EPOCH   = 12176
BSTAR          = .33258488E-3
MEAN_MOTION_DOT = .2821E-4
MEAN_MOTION_DDOT = 0

CCSDS_OMM_VERS = 2.0
CREATION_DATE  = 
ORIGINATOR     = 

OBJECT_NAME    = THOR AGENA D R/B
OBJECT_ID      = 1964-002A
CENTER_NAME    = EARTH
REF_FRAME      = TEME
TIME_SYSTEM    = UTC
MEAN_ELEMENT_THEORY = SGP/SGP4

EPOCH          = 2025-12-30T14:02:31.796736
MEAN_MOTION    = 14.33971167
ECCENTRICITY   = .0033866
INCLINATION    = 99.1219
RA_OF_ASC_NODE = 9.1688
ARG_OF_PERICENTER = 99.4175
MEAN_ANOMALY   = 261.0838

EPHEMERIS_TYPE = 0
CLASSIFICATION_TYPE = U
NORAD_CAT_ID   = 733
ELEMENT_SET_NO = 999
REV_AT_EPOCH   = 22839
BSTAR          = .15956E-3
MEAN_MOTION_DOT = .4E-5
MEAN_MOTION_DDOT = 0

CCSDS_OMM_VERS = 2.0
CREATION_DATE  = 
ORIGINATOR     = 

OBJECT_NAME    = SL-3 R/B
OBJECT_ID      = 1964-053B
CENTER_NAME    = EARTH
REF_FRAME      = TEME
TIME_SYSTEM    = UTC
MEAN_ELEMENT_THEORY = SGP/SGP4

EPOCH          = 2025-12-30T18:38:46.881600
MEAN_MOTION    = 14.61290808
ECCENTRICITY   = .0075456
INCLINATION    = 65.0757
RA_OF_ASC_NODE = 173.2605
ARG_OF_PERICENTER = 314.3531
MEAN_ANOMALY   = 45.1401

EPHEMERIS_TYPE = 0
CLASSIFICATION_TYPE = U
NORAD_CAT_ID   = 877
ELEMENT_SET_NO = 999
REV_AT_EPOCH   = 25672
BSTAR          = .11583E-3
MEAN_MOTION_DOT = .471E-5
MEAN_MOTION_DDOT = 0

CCSDS_OMM_VERS = 2.0
CREATION_DATE  = 
ORIGINATOR     = 

OBJECT_NAME    = SL-8 R/B
OBJECT_ID      = 1967-045B
CENTER_NAME    = EARTH
REF_FRAME      = TEME
TIME_SYSTEM    = UTC
MEAN_ELEMENT_THEORY = SGP/SGP4

EPOCH          = 2025-12-30T18:52:25.108608
MEAN_MOTION    = 14.45558148
ECCENTRICITY   = .0063388
INCLINATION    = 74.0116
RA_OF_ASC_NODE = 116.7651
ARG_OF_PERICENTER = 141.5608
MEAN_ANOMALY   = 219.0091

EPHEMERIS_TYPE = 0
CLASSIFICATION_TYPE = U
NORAD_CAT_ID   = 2802
ELEMENT_SET_NO = 999
REV_AT_EPOCH   = 7906
BSTAR          = .21423E-3
MEAN_MOTION_DOT = .747E-5
MEAN_MOTION_DDOT = 0

CCSDS_OMM_VERS = 2.0
CREATION_DATE  = 
ORIGINATOR     = 

OBJECT_NAME    = SL-8 R/B
OBJECT_ID      = 1968-040B
CENTER_NAME    = EARTH
REF_FRAME      = TEME
TIME_SYSTEM    = UTC
MEAN_ELEMENT_THEORY = SGP/SGP4

EPOCH          = 2025-12-30T18:00:13.009248
MEAN_MOTION    = 15.02671976
ECCENTRICITY   = .0026344
INCLINATION    = 74.0327
RA_OF_ASC_NODE = 94.4987
ARG_OF_PERICENTER = 293.2425
MEAN_ANOMALY   = 66.5989

EPHEMERIS_TYPE = 0
CLASSIFICATION_TYPE = U
NORAD_CAT_ID   = 3230
ELEMENT_SET_NO = 999
REV_AT_EPOCH   = 7965
BSTAR          = .45963E-3
MEAN_MOTION_DOT = .614E-4
MEAN_MOTION_DDOT = 0

CCSDS_OMM_VERS = 2.0
CREATION_DATE  = 
ORIGINATOR     = 

OBJECT_NAME    = OAO 2
OBJECT_ID      = 1968-110A
CENTER_NAME    = EARTH
REF_FRAME      = TEME
TIME_SYSTEM    = UTC
MEAN_ELEMENT_THEORY = SGP/SGP4

EPOCH          = 2025-12-30T20:43:13.606752
MEAN_MOTION    = 14.47256777
ECCENTRICITY   = .0005418
INCLINATION    = 34.9941
RA_OF_ASC_NODE = 289.4845
ARG_OF_PERICENTER = 358.4366
MEAN_ANOMALY   = 1.6307

EPHEMERIS_TYPE = 0
CLASSIFICATION_TYPE = U
NORAD_CAT_ID   = 3597
ELEMENT_SET_NO = 999
REV_AT_EPOCH   = 912
BSTAR          = .13115E-3
MEAN_MOTION_DOT = .467E-5
MEAN_MOTION_DDOT = 0

CCSDS_OMM_VERS = 2.0
CREATION_DATE  = 
ORIGINATOR     = 

OBJECT_NAME    = ISIS 1
OBJECT_ID      = 1969-009A
CENTER_NAME    = EARTH
REF_FRAME      = TEME
TIME_SYSTEM    = UTC
MEAN_ELEMENT_THEORY = SGP/SGP4

EPOCH          = 2025-12-30T09:48:50.042592
MEAN_MOTION    = 11.30365101
ECCENTRICITY   = .17072465
INCLINATION    = 88.4499
RA_OF_ASC_NODE = 162.8638
ARG_OF_PERICENTER = 228.9917
MEAN_ANOMALY   = 115.0721

EPHEMERIS_TYPE = 0
CLASSIFICATION_TYPE = U
NORAD_CAT_ID   = 3669
ELEMENT_SET_NO = 999
REV_AT_EPOCH   = 34070
BSTAR          = .37890611E-3
MEAN_MOTION_DOT = .528E-5
MEAN_MOTION_DDOT = 0

CCSDS_OMM_VERS = 2.0
CREATION_DATE  = 
ORIGINATOR     = 

OBJECT_NAME    = SERT 2
OBJECT_ID      = 1970-009A
CENTER_NAME    = EARTH
REF_FRAME      = TEME
TIME_SYSTEM    = UTC
MEAN_ELEMENT_THEORY = SGP/SGP4

EPOCH          = 2025-12-30T18:33:44.428032
MEAN_MOTION    = 13.58720507
ECCENTRICITY   = .0004807
INCLINATION    = 99.2674
RA_OF_ASC_NODE = 306.6695
ARG_OF_PERICENTER = 351.2940
MEAN_ANOMALY   = 64.8799

EPHEMERIS_TYPE = 0
CLASSIFICATION_TYPE = U
NORAD_CAT_ID   = 4327
ELEMENT_SET_NO = 999
REV_AT_EPOCH   = 77053
BSTAR          = .10565E-3
MEAN_MOTION_DOT = .36E-6
MEAN_MOTION_DDOT = 0

CCSDS_OMM_VERS = 2.0
CREATION_DATE  = 
ORIGINATOR     = 

OBJECT_NAME    = SL-3 R/B
OBJECT_ID      = 1971-028B
CENTER_NAME    = EARTH
REF_FRAME      = TEME
TIME_SYSTEM    = UTC
MEAN_ELEMENT_THEORY = SGP/SGP4

EPOCH          = 2025-12-30T19:44:11.441760
MEAN_MOTION    = 15.55659587
ECCENTRICITY   = .0018746
INCLINATION    = 81.2373
RA_OF_ASC_NODE = 136.7287
ARG_OF_PERICENTER = 175.9713
MEAN_ANOMALY   = 184.1692

EPHEMERIS_TYPE = 0
CLASSIFICATION_TYPE = U
NORAD_CAT_ID   = 5118
ELEMENT_SET_NO = 999
REV_AT_EPOCH   = 97794
BSTAR          = .69559E-3
MEAN_MOTION_DOT = .48377E-3
MEAN_MOTION_DDOT = 0

CCSDS_OMM_VERS = 2.0
CREATION_DATE  = 
ORIGINATOR     = 

OBJECT_NAME    = ASTEX 1
OBJECT_ID      = 1971-089A
CENTER_NAME    = EARTH
REF_FRAME      = TEME
TIME_SYSTEM    = UTC
MEAN_ELEMENT_THEORY = SGP/SGP4

EPOCH          = 2025-12-30T18:39:32.936256
MEAN_MOTION    = 14.50667577
ECCENTRICITY   = .0014154
INCLINATION    = 92.7152
RA_OF_ASC_NODE = 129.4564
ARG_OF_PERICENTER = 324.1060
MEAN_ANOMALY   = 35.9194

EPHEMERIS_TYPE = 0
CLASSIFICATION_TYPE = U
NORAD_CAT_ID   = 5560
ELEMENT_SET_NO = 999
REV_AT_EPOCH   = 85231
BSTAR          = .25714E-3
MEAN_MOTION_DOT = .1009E-4
MEAN_MOTION_DDOT = 0

CCSDS_OMM_VERS = 2.0
CREATION_DATE  = 
ORIGINATOR     = 

OBJECT_NAME    = SL-8 R/B
OBJECT_ID      = 1971-119B
CENTER_NAME    = EARTH
REF_FRAME      = TEME
TIME_SYSTEM    = UTC
MEAN_ELEMENT_THEORY = SGP/SGP4

EPOCH          = 2025-12-30T07:30:06.251040
MEAN_MOTION    = 14.36175408
ECCENTRICITY   = .05578463
INCLINATION    = 73.8891
RA_OF_ASC_NODE = 305.2332
ARG_OF_PERICENTER = 285.9702
MEAN_ANOMALY   = 68.0695

EPHEMERIS_TYPE = 0
CLASSIFICATION_TYPE = U
NORAD_CAT_ID   = 5730
ELEMENT_SET_NO = 999
REV_AT_EPOCH   = 64552
BSTAR          = .74045316E-3
MEAN_MOTION_DOT = .14283E-3
MEAN_MOTION_DDOT = 0

CCSDS_OMM_VERS = 2.0
CREATION_DATE  = 
ORIGINATOR     = 

OBJECT_NAME    = OAO 3 (COPERNICUS)
OBJECT_ID      = 1972-065A
CENTER_NAME    = EARTH
REF_FRAME      = TEME
TIME_SYSTEM    = UTC
MEAN_ELEMENT_THEORY = SGP/SGP4

EPOCH          = 2025-12-30T09:42:58.721184
MEAN_MOTION    = 14.59924803
ECCENTRICITY   = .00070596
INCLINATION    = 35.0072
RA_OF_ASC_NODE = 332.0374
ARG_OF_PERICENTER = 309.7514
MEAN_ANOMALY   = 188.2192

EPHEMERIS_TYPE = 0
CLASSIFICATION_TYPE = U
NORAD_CAT_ID   = 6153
ELEMENT_SET_NO = 999
REV_AT_EPOCH   = 83606
BSTAR          = .16206245E-3
MEAN_MOTION_DOT = .767E-5
MEAN_MOTION_DDOT = 0

