ATLAS CENTAUR 2         
1 00694U 63047A   25363.97650485  .00002821  00000+0  33258-3 0  9998
2 00694  30.3533 225.1714 0548623 186.0270 173.3506 14.11836125121766
THOR AGENA D R/B        
1 00733U 64002A   25364.58509024  .00000400  00000+0  15956-3 0  9990
2 00733  99.1219   9.1688 0033866  99.4175 261.0838 14.33971167228393
SL-3 R/B                
1 00877U 64053B   25364.77693150  .00000471  00000+0  11583-3 0  9990
2 00877  65.0757 173.2605 0075456 314.3531  45.1401 14.61290808256721
SL-8 R/B                
1 02802U 67045B   25364.78640172  .00000747  00000+0  21423-3 0  9991
2 02802  74.0116 116.7651 0063388 141.5608 219.0091 14.45558148 79062
SL-8 R/B                
1 03230U 68040B   25364.75015057  .00006140  00000+0  45963-3 0  9996
2 03230  74.0327  94.4987 0026344 293.2425  66.5989 15.02671976 79654
OAO 2                   
1 03597U 68110A   25364.86335193  .00000467  00000+0  13115-3 0  9998
2 03597  34.9941 289.4845 0005418 358.4366   1.6307 14.47256777  9128
ISIS 1                  
1 03669U 69009A   25364.40891253  .00000528  00000+0  37891-3 0  9995
2 03669  88.4499 162.8638 1707246 228.9917 115.0721 11.30365101340709
SERT 2                  
1 04327U 70009A   25364.77343088  .00000036  00000+0  10565-3 0  9990
2 04327  99.2674 306.6695 0004807 351.2940  64.8799 13.58720507770536
SL-3 R/B                
1 05118U 71028B   25364.82235465  .00048377  00000+0  69559-3 0  9993
2 05118  81.2373 136.7287 0018746 175.9713 184.1692 15.55659587977947
ASTEX 1                 
1 05560U 71089A   25364.77746454  .00001009  00000+0  25714-3 0  9996
2 05560  92.7152 129.4564 0014154 324.1060  35.9194 14.50667577852314
SL-8 R/B                
1 05730U 71119B   25364.31257235  .00014283  00000+0  74045-3 0  9992
2 05730  73.8891 305.2332 0557846 285.9702  68.0695 14.36175408645524
OAO 3 (COPERNICUS)      
1 06153U 72065A   25364.40484631  .00000767  00000+0  16206-3 0  9992
2 06153  35.0072 332.0374 0007059 309.7514 188.2192 14.59924803836065
